C/2020 R2 (PANSTARRS),e,53.2230,195.1118,211.8701,431.4221,0.0001100,0.98911192,0.0000,02/25.3741/2022,2000,g  9.0,4.0
# From MPEC 2022-K19
C/2020 R4 (ATLAS),e,164.4167,323.2463,46.5590,98.26615,0.0010118,0.98959920,0.0000,03/02.3844/2021,2000,g 13.5,4.0
# From MPEC 2023-C45
P/2020 R5 (PANSTARRS),e,11.4397,272.9411,82.7619,4.992083,0.0883652,0.31350181,146.1123,12/07.0/2024,2000,g  9.5,6.0
# From MPEC 2021-Y10
C/2020 R6 (Rankin),e,82.8591,12.2101,272.0032,294.3664,0.0001952,0.98933669,0.0000,09/07.1213/2019,2000,g 11.0,4.0
# From MPEC 2024-PC5
C/2020 R7 (ATLAS),e,114.9031,268.3084,347.7975,43085,0.0000001,0.99993145,0.0000,09/16.1382/2022,2000,g  7.0,3.2
# From MPEC 2021-BE3
P/2020 S1 (PANSTARRS),e,13.7175,129.5009,255.1248,6.000304,0.0670570,0.50722364,95.1935,12/07.0/2024,2000,g 14.0,4.0
# From MPEC 2022-ST7
C/2020 S2 (PANSTARRS),e,22.3891,197.7031,202.3973,10.24631,0.0300506,0.82810212,43.4448,12/07.0/2024,2000,g 17.0,4.0
# From MPEC 2024-JU4
C/2020 S3 (Erasmus),e,20.0378,222.5637,350.0471,142.8291,0.0005774,0.99724073,0.0000,12/11.4079/2020,2000,g 13.5,3.2
# From MPEC 2024-N80
C/2020 S4 (PANSTARRS),h,02/09.4154/2023,20.5686,117.6916,21.0303,1.002376,3.369817,2000,8.5,3.2
# From MPEC 2021-BE3
P/2020 S5 (PANSTARRS),e,12.3414,316.0331,53.2738,4.057390,0.1205963,0.33768277,190.7020,12/07.0/2024,2000,g 14.5,4.0
# From MPEC 2021-BE3
P/2020 S7 (PANSTARRS),e,16.0746,328.0887,40.6489,5.035566,0.0872231,0.40988408,129.0678,12/07.0/2024,2000,g 14.5,4.0
# From MPEC 2021-P47
C/2020 S8 (Lemmon),e,108.5340,24.0390,160.1609,243.6724,0.0002591,0.99032894,0.0000,04/10.5373/2021,2000,g 12.5,4.0
# From MPEC 2022-TD3
C/2020 T2 (Palomar),e,27.8379,83.0523,150.3780,276.2516,0.0002147,0.99256008,0.0000,07/10.5583/2021,2000,g 11.0,3.2
# From MPEC 2021-N06
P/2020 T3 (PANSTARRS),e,7.2993,73.9932,357.0661,3.516298,0.1494774,0.59247799,211.5297,12/07.0/2024,2000,g 18.0,3.2
# From MPEC 2021-N06
C/2020 T4 (PANSTARRS),h,07/05.8401/2021,83.8474,50.6174,79.5776,1.000546,2.188781,2000,13.0,3.2
# From MPEC 2021-BE3
C/2020 T5 (Lemmon),e,66.5448,237.8288,90.3798,636.7552,0.0000613,0.99702203,0.0000,10/08.2358/2020,2000,g 16.0,4.0
# From MPEC 2021-N06
P/2020 U2 (PANSTARRS),e,6.4195,342.8393,84.7330,3.777850,0.1342261,0.51142082,193.4071,12/07.0/2024,2000,g 18.0,4.0
# From MPEC 2021-W31
C/2020 U3 (Rankin),e,30.1405,282.6133,124.4627,67.52175,0.0017764,0.96619552,2.4865,12/07.0/2024,2000,g 15.0,4.0
# From MPEC 2024-TD8
C/2020 U4 (PANSTARRS),h,04/09.8104/2022,167.0058,120.3992,70.1510,1.000933,5.361070,2000,7.0,4.0
# From MPEC 2024-GJ3
C/2020 U5 (PANSTARRS),e,97.3043,107.3139,75.4590,5985,0.0000021,0.99937228,0.0000,04/28.1796/2022,2000,g  8.0,4.0
# From MPEC 2024-X74
C/2020 V2 (ZTF),h,05/08.4793/2023,131.6130,212.3812,162.4270,1.000900,2.228613,2000,4.9,4.0
# From MPEC 2023-D72
P/2020 V3 (PANSTARRS),e,23.0268,198.2633,249.6807,8.403033,0.0404622,0.25786642,56.3205,12/07.0/2024,2000,g  8.3,4.0
# From MPEC 2024-F34
P/2020 V4 (Rankin),e,14.2409,203.4873,257.1786,9.391046,0.0342478,0.45146328,42.3294,12/07.0/2024,2000,g  9.0,4.0
# From MPEC 2021-BE3
P/2020 W1 (Rankin),e,10.7787,124.3897,265.3406,7.224335,0.0507583,0.26585583,86.3543,12/07.0/2024,2000,g 10.0,4.0
# From MPEC 2021-BE3
C/2020 W5 (Lemmon),h,11/30.6925/2020,88.6196,75.4640,24.5719,1.001850,3.368925,2000,15.0,4.0
# From MPEC 2024-PC5
P/2020 WJ5 (Lemmon),e,22.2884,177.7806,338.0442,6.015039,0.0668108,0.17193216,83.9183,12/07.0/2024,2000,g  8.5,4.0
# From MPEC 2024-F34
P/2020 X1 (ATLAS),e,31.6955,55.9816,323.5222,4.534926,0.1020584,0.36477341,163.3426,12/07.0/2024,2000,g 13.0,4.0
# From MPEC 2024-A43
C/2020 X2 (ATLAS),e,18.1858,105.3654,347.5121,16.52008,0.0146786,0.76818976,21.7394,12/07.0/2024,2000,g 10.6,4.0
# From MPEC 2021-S45
C/2020 X4 (Leonard),e,80.6460,161.9347,140.3130,40.65223,0.0038026,0.87147093,5.6368,12/07.0/2024,2000,g  9.0,4.0
# From MPEC 2024-UQ8
C/2020 Y2 (ATLAS),e,101.1917,26.5340,266.4117,1411,0.0000186,0.99777134,0.0000,06/17.9778/2022,2000,g  6.5,4.0
# From MPEC 2021-R75
C/2020 Y3 (ATLAS),e,83.1239,191.3845,341.8606,138.0617,0.0006076,0.98557749,0.0000,12/03.2372/2020,2000,g 13.5,4.0
# From MPEC 2023-CD7
C/2021 A1 (Leonard),h,01/03.5699/2022,132.7616,255.9148,225.1496,1.000182,0.616014,2000,8.5,4.0
# From MPEC 2022-F14
C/2021 A2 (NEOWISE),e,107.0373,125.0920,338.7761,228.3445,0.0002856,0.99380676,0.0000,01/22.0264/2021,2000,g 13.5,4.0
# From MPEC 2022-ED3
C/2021 A4 (NEOWISE),e,111.6144,307.0945,204.7378,42.42566,0.0035667,0.97290378,0.0000,03/19.4887/2021,2000,g 16.0,4.0
# From MPEC 2021-BE3
P/2021 A5 (PANSTARRS),e,18.1875,328.8124,61.4775,3.046908,0.1853169,0.13989658,274.9343,12/07.0/2024,2000,g 15.0,4.0
# From MPEC 2024-P23
C/2021 A6 (PANSTARRS),e,75.5735,164.0421,351.6089,9627,0.0000010,0.99917687,0.0000,05/02.8620/2021,2000,g  7.0,4.0
# From MPEC 2022-M88
C/2021 A7 (NEOWISE),e,78.1952,154.4324,355.9851,1797,0.0000129,0.99890663,0.0000,07/15.1305/2021,2000,g 10.0,4.0
# From MPEC 2024-X74
C/2021 A9 (PANSTARRS),h,12/03.2424/2023,158.0155,314.8417,211.5680,1.000782,7.761606,2000,6.0,4.0
# From MPEC 2021-N06
C/2021 A10 (NEOWISE),e,151.9762,188.7969,82.5785,89.37989,0.0011664,0.98584494,0.0000,03/14.7899/2021,2000,g 19.0,4.0
# From MPEC 2022-L66
C/2021 B2 (PANSTARRS),e,38.0846,120.4599,335.0665,395.8740,0.0001251,0.99365225,0.0000,05/04.7759/2021,2000,g 14.0,4.0
# From MPEC 2021-N06
C/2021 B3 (NEOWISE),e,119.4732,67.2704,293.5652,34.22459,0.0049226,0.93672710,6.7360,12/07.0/2024,2000,g 13.5,4.0
# From MPEC 2023-KD6
C/2021 C1 (Rankin),e,143.0425,186.8542,336.0975,2272,0.0000091,0.99847122,0.0000,12/06.1823/2020,2000,g 11.5,4.0
# From MPEC 2021-U31
P/2021 C2 (PANSTARRS),e,21.9410,66.4561,78.6970,9.540956,0.0334438,0.48811668,46.2164,12/07.0/2024,2000,g 12.0,4.0
# From MPEC 2024-M41
C/2021 C3 (Catalina),e,122.1887,181.8816,356.9887,60.63196,0.0020876,0.96250833,2.9114,12/07.0/2024,2000,g 14.0,4.0
# From MPEC 2022-M88
C/2021 C4 (ATLAS),e,132.8394,194.2499,320.0692,5653,0.0000023,0.99920486,0.0000,01/16.5077/2021,2000,g  9.0,4.0
# From MPEC 2024-N80
C/2021 C5 (PANSTARRS),e,50.7982,323.6729,270.9043,1706,0.0000140,0.99809992,0.0000,02/10.9647/2023,2000,g  9.0,4.0
# From MPEC 2022-YB4
C/2021 C6 (Lemmon),e,164.6061,332.3378,203.8261,2712,0.0000070,0.99879029,0.0000,11/12.1190/2021,2000,g 12.0,4.0
# From MPEC 2022-F14
C/2021 D1 (SWAN),e,31.3753,311.1970,72.3970,101.9911,0.0009569,0.99111529,0.0000,02/27.6086/2021,2000,g 13.0,4.0
# From MPEC 2023-J29
C/2021 D2 (ZTF),h,02/03.8173/2022,83.7803,305.6421,125.0455,1.001496,2.947720,2000,9.0,4.0
# From MPEC 2022-UY9
A/2021 E2,e,167.4911,190.7792,342.2579,205.3242,0.0003350,0.98888413,0.0000,12/09.4841/2020,2000,g 15.0,2.0
# From MPEC 2024-GJ3
C/2021 E3 (ZTF),h,06/11.5232/2022,112.5255,104.4839,228.8167,1.000195,1.777210,2000,8.5,4.0
# From MPEC 2024-N80
A/2021 E4,e,116.3702,171.1534,48.2687,507.4186,0.0000862,0.99078041,0.0000,04/24.8537/2022,2000,g 13.5,22.0
# From MPEC 2022-QD9
C/2021 F1 (Lemmon-PANSTARRS),e,107.3067,203.5067,146.9182,246.0903,0.0002553,0.99594204,0.0000,04/06.7356/2022,2000,g 13.5,4.0
# From MPEC 2021-J72
C/2021 G1 (Leonard),e,131.5472,270.6980,107.4271,71.52194,0.0016295,0.95210027,2.0127,12/07.0/2024,2000,g 14.0,4.0
# From MPEC 2024-RQ6
C/2021 G2 (ATLAS),h,09/09.1679/2024,48.4721,221.0953,343.2725,1.000390,4.982369,2000,5.5,4.0
# From MPEC 2022-X67
C/2021 G3 (PANSTARRS),e,102.8701,147.3634,10.5810,8215,0.0000013,0.99936933,0.0000,10/17.8134/2021,2000,g 10.5,4.0
# From MPEC 2021-Y10
P/2021 HS (PANSTARRS),e,12.1545,262.3586,46.1363,4.193957,0.1147541,0.80941708,139.9584,12/07.0/2024,2000,g 22.0,4.0
# From MPEC 2022-C56
C/2021 J1 (Maury-Attard),e,92.7085,88.4295,147.2396,26.24926,0.0073287,0.93385148,10.1621,12/07.0/2024,2000,g 15.5,4.0
# From MPEC 2023-XP6
C/2021 J2 (PANSTARRS),e,156.2119,23.3214,171.9127,113.4102,0.0008161,0.95854593,0.9570,12/07.0/2024,2000,g 12.0,4.0
# From MPEC 2024-F34
P/2021 J3 (ATLAS),e,14.5192,111.0554,125.7233,8.900441,0.0371182,0.44911087,73.7179,12/07.0/2024,2000,g  7.0,4.0
# From MPEC 2022-O08
C/2021 K1 (ATLAS),e,16.2723,140.9202,184.2490,12.62419,0.0219735,0.80184489,28.8718,12/07.0/2024,2000,g 11.0,4.0
# From MPEC 2022-O01
C/2021 K2 (MASTER),h,09/09.4843/2021,100.8690,282.3316,343.3147,1.000726,5.466510,2000,8.0,4.0
# From MPEC 2022-L66
C/2021 K3 (Catalina),h,02/03.8587/2022,134.7800,114.5980,182.0413,1.004450,5.229992,2000,10.0,4.0
# From MPEC 2021-W31
P/2021 L2 (Leonard),e,21.0643,266.6527,51.4684,4.048077,0.1210127,0.52071421,149.1719,12/07.0/2024,2000,g 17.0,4.0
# From MPEC 2024-H50
C/2021 L3 (Borisov),h,02/14.9172/2022,78.5515,345.0077,91.6427,1.004688,8.459353,2000,6.0,4.0
# From MPEC 2022-TA0
P/2021 N1 (ZTF),e,11.4865,301.1397,21.2364,2.979224,0.1916679,0.67579452,245.4086,12/07.0/2024,2000,g 19.0,4.0
# From MPEC 2024-GJ3
P/2021 N2 (Fuls),e,13.0610,221.7347,177.6009,6.945528,0.0538451,0.45240242,60.2337,12/07.0/2024,2000,g  9.5,4.0
# From MPEC 2022-YB4
C/2021 N3 (PANSTARRS),e,26.7566,337.5138,304.6599,142.6909,0.0005782,0.95994760,0.9093,12/07.0/2024,2000,g  8.5,4.0
# From MPEC 2022-A21
C/2021 O1 (Nishimura),e,27.5862,41.5762,74.3943,3559,0.0000046,0.99978002,0.0000,08/14.5358/2021,2000,g 10.5,4.0
# From MPEC 2022-L66
C/2021 O3 (PANSTARRS),h,04/21.1939/2022,56.8114,188.8833,299.9765,1.000044,0.285432,2000,10.5,4.0
# From MPEC 2024-F34
C/2021 P1 (PANSTARRS),e,51.6285,359.6993,40.5182,2952,0.0000061,0.99851676,0.0000,06/02.6582/2022,2000,g 11.0,4.0
# From MPEC 2024-NE4
C/2021 P2 (PANSTARRS),e,150.0603,32.0880,76.7244,9717,0.0000010,0.99947832,0.0000,01/23.0922/2023,2000,g  9.0,4.0
# From MPEC 2024-GJ3
P/2021 P3 (PANSTARRS),e,27.1604,358.2475,334.0528,4.412421,0.1063380,0.33846533,136.9619,12/07.0/2024,2000,g 14.0,4.0
# From MPEC 2023-A50
C/2021 P4 (ATLAS),e,56.3484,348.0372,175.7960,294.5695,0.0001949,0.99633727,0.0000,07/30.3632/2022,2000,g  9.5,4.0
# From MPEC 2023-E68
P/2021 PE20 (ATLAS),e,19.9994,99.6235,210.4551,3.745970,0.1359432,0.66987138,174.0097,12/07.0/2024,2000,g 17.0,4.0
# From MPEC 2023-FK0
